OBJECT_NAME,OBJECT_ID,EPOCH,MEAN_MOTION,ECCENTRICITY,INCLINATION,RA_OF_ASC_NODE,ARG_OF_PERICENTER,MEAN_ANOMALY,EPHEMERIS_TYPE,CLASSIFICATION_TYPE,NORAD_CAT_ID,ELEMENT_SET_NO,REV_AT_EPOCH,BSTAR,MEAN_MOTION_DOT,MEAN_MOTION_DDOT
GSAT0216 (GALILEO 20),2017-079B,2026-06-30T19:09:15.256800,1.70474719,.00046863,55.0708,221.1319,276.4690,83.5705,0,U,43056,999,5323,0,.74E-6,0
GSAT0217 (GALILEO 21),2017-079C,2026-07-01T00:27:12.213504,1.70474451,.00048591,55.0679,221.1236,286.9654,73.0732,0,U,43057,999,5322,0,.74E-6,0
GSAT0218 (GALILEO 22),2017-079D,2026-06-30T01:34:46.177536,1.70474397,.00061659,55.0690,221.1474,274.7055,85.3194,0,U,43058,999,5323,0,.73E-6,0
BEIDOU-3 M7 (C27),2018-003A,2026-06-29T16:48:53.725248,1.86228407,.00046384,54.3155,301.8783,96.3003,263.7573,0,U,43107,999,5758,0,-.77E-6,0
BEIDOU-3 M8 (C28),2018-003B,2026-06-30T17:15:30.902688,1.86231192,.0002891,54.3075,301.8252,258.4247,101.5527,0,U,43108,999,5761,0,-.7E-6,0
BEIDOU-3 M4 (C22),2018-018A,2026-06-30T02:07:08.825376,1.86231543,.0007448,56.6620,62.7232,23.9137,336.1827,0,U,43207,999,5698,0,-.5E-6,0
BEIDOU-3 M3 (C21),2018-018B,2026-07-01T05:29:19.451904,1.86231442,.00080903,56.6627,62.6896,343.0276,17.0116,0,U,43208,999,5700,0,-.42E-6,0
BEIDOU-3 M9 (C29),2018-029A,2026-06-30T21:49:52.132224,1.86228670,.000099,54.1802,299.4687,172.3805,187.6353,0,U,43245,999,5615,0,-.66E-6,0
BEIDOU-3 M10 (C30),2018-029B,2026-06-29T05:35:34.777824,1.86229560,.00036046,54.1795,299.5537,39.0679,320.9640,0,U,43246,999,5610,0,-.77E-6,0
IRNSS-1I,2018-035A,2026-06-28T19:05:38.535360,1.00277388,.0017671,28.7805,74.0157,182.6115,1.5908,0,U,43286,999,3019,0,.66E-6,0
COSMOS 2527 (756),2018-053A,2026-07-01T03:54:06.326208,2.13102194,.0006718,65.5849,73.4409,234.8193,125.1797,0,U,43508,999,6257,0,-.14E-6,0
BEIDOU-2 IGSO-7 (C16),2018-057A,2026-06-30T11:33:32.908896,1.00247568,.01047979,55.1979,162.9413,237.9284,159.8469,0,U,43539,999,2926,0,-.36E-6,0
GSAT0221 (GALILEO 25),2018-060A,2026-07-01T03:25:52.946688,1.70476287,.0002519,57.1648,341.4040,293.8914,66.0735,0,U,43564,999,4940,0,-.82E-6,0
GSAT0222 (GALILEO 26),2018-060B,2026-06-30T18:37:32.152512,1.70476023,.00023684,57.1684,341.4176,238.3104,121.6576,0,U,43565,999,4944,0,-.83E-6,0
GSAT0219 (GALILEO 23),2018-060C,2026-06-30T23:55:35.692032,1.70476218,.00017686,57.1678,341.4132,309.8644,50.1112,0,U,43566,999,4942,0,-.83E-6,0
GSAT0220 (GALILEO 24),2018-060D,2026-06-30T01:04:28.014816,1.70476251,.00019148,57.1670,341.4391,299.6424,60.3296,0,U,43567,999,4939,0,-.86E-6,0
BEIDOU-3 M5 (C23),2018-062A,2026-06-30T12:44:34.118880,1.86228822,.0005701,54.0866,181.8503,291.2634,68.6860,0,U,43581,999,5388,0,.69E-6,0
BEIDOU-3 M6 (C24),2018-062B,2026-06-30T22:21:16.377120,1.86227996,.0005166,54.0861,181.8260,9.1452,350.8724,0,U,43582,999,5389,0,.69E-6,0
BEIDOU-3 M12 (C26),2018-067A,2026-06-30T07:59:23.000640,1.86227822,.00078824,54.1812,180.5941,29.9237,330.1298,0,U,43602,999,5336,0,.68E-6,0
BEIDOU-3 M11 (C25),2018-067B,2026-06-30T11:13:55.613856,1.86227290,.0004606,54.1785,180.5532,13.1016,346.9180,0,U,43603,999,5339,0,.68E-6,0
BEIDOU-3 M13 (C32),2018-072A,2026-06-28T19:29:10.854816,1.86231457,.00069428,56.6350,62.2756,330.4387,29.5780,0,U,43622,999,5287,0,-.62E-6,0
BEIDOU-3 M14 (C33),2018-072B,2026-06-30T06:55:04.226304,1.86231462,.00058641,56.6378,62.2212,5.3649,354.7045,0,U,43623,999,5289,0,-.49E-6,0
BEIDOU-3 M16 (C35),2018-078A,2026-06-30T10:38:26.690208,1.86232447,.00068914,54.0771,299.5213,40.4774,319.5856,0,U,43647,999,5240,0,-.69E-6,0
BEIDOU-3 M15 (C34),2018-078B,2026-06-30T00:51:23.712768,1.86232575,.00038812,54.0730,299.5360,58.0730,301.9745,0,U,43648,999,5241,0,-.71E-6,0
BEIDOU-3 G1 (C59),2018-085A,2026-07-01T14:47:20.799744,1.00271089,.00085744,2.9036,96.9889,353.0352,211.3972,0,U,43683,999,2820,0,-.101E-5,0
COSMOS 2529 (757),2018-086A,2026-07-01T06:12:49.493952,2.13102156,.00120967,64.2961,192.1192,256.3281,103.5738,0,U,43687,999,5958,0,.8E-6,0
BEIDOU-3 M17 (C36),2018-093A,2026-06-30T17:30:46.323648,1.86228547,.00101661,54.1700,181.8368,292.9886,63.8528,0,U,43706,999,5178,0,.69E-6,0
BEIDOU-3 M18 (C37),2018-093B,2026-06-30T01:27:39.144672,1.86226728,.00080891,54.1707,181.8515,321.6301,38.3251,0,U,43707,999,5177,0,.7E-6,0
GPS BIII-1  (PRN 04),2018-109A,2026-06-29T23:50:46.235616,2.00562470,.00385199,55.6890,91.6817,197.6433,172.9146,0,U,43873,999,5533,0,-.33E-6,0
BEIDOU-3 IGSO-1 (C38),2019-023A,2026-06-30T23:56:38.611104,1.00288188,.00256822,58.7138,37.5078,224.2080,135.1816,0,U,44204,999,734,0,-.197E-5,0
BEIDOU-2 G8 (C01),2019-027A,2026-07-01T14:42:51.230880,1.00267612,.00096871,1.6934,74.5194,285.2639,285.0192,0,U,44231,999,2622,0,-.239E-5,0
